IRIDIUM 170             
1 43930U 19002J   25200.53121189  .00000730  00000+0  11181-3 0  9994
2 43930  86.6132 132.6701 0002580  77.5954 282.5552 14.72246980350313
IRIDIUM 167             
1 43931U 19002K   25200.56845929  .00000031  00000+0  41130-5 0  9996
2 43931  86.4001 132.6577 0001812  85.0665 275.0737 14.34217871341281
JILIN-1 09              
1 43943U 19005B   25201.06894116  .00004019  00000+0  21080-3 0  9990
2 43943  97.4810 294.7827 0003719 144.7849 215.3630 15.16322437358741
JILIN-1 10              
1 43946U 19005E   25201.04309302  .00004034  00000+0  18784-3 0  9993
2 43946  97.4816 296.1527 0008970  15.3393 344.8113 15.20458517358753
HELLAS-SAT 4 & SGS-1    
1 44034U 19007A   25200.76056855  .00000155  00000+0  00000+0 0  9992
2 44034   0.0658 122.4794 0005491  22.9341 105.1845  1.00286944 24021
GSAT-31                 
1 44035U 19007B   25200.93011140  .00000128  00000+0  00000+0 0  9990
2 44035   0.0553 250.2107 0001545 342.6181  87.8417  1.00272923 23633
EGYPTSAT-A (MISRSAT-A)  
1 44047U 19008A   25201.15279172  .00000438  00000+0  77182-4 0  9994
2 44047  98.0182 265.7741 0001070  82.4866 277.6462 14.72230942344383
NUSANTARA SATU          
1 44048U 19009A   25200.85253230 -.00000232  00000+0  00000+0 0  9992
2 44048   0.0301 119.6896 0004594  11.6716 259.4227  1.00269812 23432
ONEWEB-0012             
1 44057U 19010A   25200.53847363  .00000003  00000+0 -25318-4 0  9995
2 44057  87.9054 295.1075 0002441 111.4428 248.6963 13.16596374307795
ONEWEB-0010             
1 44058U 19010B   25200.25983068  .00000100  00000+0  22699-3 0  9993
2 44058  87.9052 295.1459 0002313  91.8650 268.2746 13.16595206307808
ONEWEB-0008             
1 44059U 19010C   25200.66513588 -.00000239  00000+0 -65818-3 0  9990
2 44059  87.9054 295.0640 0001838 100.9917 259.1421 13.16593435307970
ONEWEB-0007             
1 44060U 19010D   25200.58823729  .00000000  00000+0 -35122-4 0  9995
2 44060  87.9092 325.5475 0002307  97.8514 262.2878 13.15548836307647
ONEWEB-0006             
1 44061U 19010E   25200.59217917  .00000004  00000+0 -24713-4 0  9991
2 44061  87.9077 325.4906 0002122  94.5001 265.6372 13.15547788307695
ONEWEB-0011             
1 44062U 19010F   25200.63656412  .00000139  00000+0  33435-3 0  9992
2 44062  87.9077 325.4915 0001807  92.4412 267.6926 13.15549386307691
S5                      
1 44065U 19009D   25200.26433829  .00000074  00000+0  00000+0 0  9993
2 44065   5.7112  74.8404 0003291 122.2497  77.0373  0.99335201 23134
ZHONGXING-6C            
1 44067U 19012A   25200.86747164 -.00000332  00000+0  00000+0 0  9993
2 44067   0.0837 271.0048 0009067 142.3539 327.2328  1.00273289 23400
WGS 10 (USA 291)        
1 44071U 19014A   25200.91858883  .00000049  00000+0  00000+0 0  9991
2 44071   0.0240  56.3558 0000627 171.6146 100.9695  1.00270462 23284
PRISMA                  
1 44072U 19015A   25200.92225735  .00000676  00000+0  88208-4 0  9995
2 44072  97.8743 275.4531 0001489  90.0318 270.1067 14.83679554342786
TIANLIAN 2-01           
1 44076U 19017A   25200.87504902 -.00000103  00000+0  00000+0 0  9996
2 44076   0.1096 263.3543 0001884 252.9607 173.6208  1.00269125 23319
EMISAT                  
1 44078U 19018A   25201.08767279  .00000170  00000+0  62413-4 0  9995
2 44078  98.2847 257.0071 0019193 135.9293 224.3432 14.43739476332130
O3B FM20                
1 44112U 19020A   25200.79393202 -.00000016  00000+0  00000+0 0  9994
2 44112   0.0483 355.7916 0003394 121.2586 242.9831  5.00115313114935
O3B FM19                
1 44113U 19020B   25200.62134009 -.00000016  00000+0  00000+0 0  9995
2 44113   0.0281  28.3764 0003395 117.3843 214.2598  5.00115682114806
O3B FM17                
1 44114U 19020C   25200.70117530 -.00000016  00000+0  00000+0 0  9995
2 44114   0.0680 354.7786 0003101 119.5282 245.7242  5.00115218114895
O3B FM18                
1 44115U 19020D   25200.64739104 -.00000016  00000+0  00000+0 0  9996
2 44115   0.0479 355.7612 0002844 120.4929 243.7738  5.00115101115006
ARABSAT-6A              
1 44186U 19021A   25200.96050110  .00000156  00000+0  00000+0 0  9997
2 44186   0.0474 343.5910 0001495 180.7290 149.9625  1.00275866 22826
BEIDOU-3 IGSO-1         
1 44204U 19023A   25200.55418855 -.00000214  00000+0  00000+0 0  9995
2 44204  58.2240  41.0827 0023562 215.8566 358.4518  1.00287287  3877
TIANHUI 2-01A           
1 44207U 19024A   25200.79080981  .00001500  00000+0  79869-4 0  9992
2 44207  97.4751 204.2319 0001536 112.2468 247.8928 15.16755418 51753
TIANHUI 2-01B           
1 44209U 19024C   25200.79081061  .00001607  00000+0  85283-4 0  9999
2 44209  97.4750 204.2295 0001967 101.3940 258.7514 15.16755738344324
BEIDOU-2 G8             
1 44231U 19027A   25200.85253230 -.00000246  00000+0  00000+0 0  9991
2 44231   1.7709  75.2108 0003702 247.1529  66.9712  1.00271094 22745
RISAT-2B                
1 44233U 19028A   25201.19518378  .00002492  00000+0  19953-3 0  9994
2 44233  36.9959 161.9434 0007373 234.0603 125.9456 15.00628889338042
COSMOS 2534 [GLONASS-M] 
1 44299U 19030A   25200.76911229  .00000117  00000+0  00000+0 0  9994
2 44299  64.3687 203.8091 0013581 276.7462  82.0772  2.13102041 47831
YAMAL 601               
1 44307U 19031A   25200.93011140  .00000123  00000+0  00000+0 0  9994
2 44307   0.0121 112.6885 0002521   1.6313 207.4776  1.00269473 22581
BUFENG 1A               
1 44310U 19032A   25201.08921168  .00007709  00000+0  37468-3 0  9995
2 44310  44.9775  59.9707 0011747 170.4213 189.6892 15.18929112336537
BUFENG 1B               
1 44311U 19032B   25200.83988821  .00007219  00000+0  34762-3 0  9997
2 44311  44.9775  13.7902 0035236 222.6316 137.1827 15.18870696337063
JILIN-1 GAOFEN 3A       
1 44312U 19032C   25200.92681582  .00007431  00000+0  31754-3 0  9996
2 44312  44.9800  12.8683 0012037 208.6780 151.3441 15.23408746337094
XIAOXIANG 4             
1 44313U 19032D   25200.71161622  .00064390  00000+0  81839-3 0  9998
2 44313  44.9895 298.8230 0016306 299.8046  60.1227 15.58426440337934
TIANQI-3                
1 44314U 19032E   25200.92850647  .00010693  00000+0  42028-3 0  9998
2 44314  45.0029   6.2945 0014747 220.9320 139.0456 15.25793490337179
RCM-1                   
1 44322U 19033A   25200.95578550  .00000854  00000+0  88497-4 0  9990
2 44322  97.7605 208.1556 0001520  89.5058 270.6335 14.92586868332529
RCM-3                   
1 44323U 19033B   25200.91135801  .00000786  00000+0  81838-4 0  9991
2 44323  97.7605 208.2072 0001490  88.7612 271.3778 14.92587893332536
RCM-2                   
1 44324U 19033C   25200.93356519 -.00000239  00000+0 -17823-4 0  9993
2 44324  97.7602 208.1803 0001512  89.9398 270.1995 14.92588941332526
AT&T T-16               
1 44333U 19034A   25200.67887980 -.00000111  00000+0  00000+0 0  9998
2 44333   0.0240  81.2948 0000601 272.9041  87.0412  1.00269208 22294
EUTELSAT 7C             
1 44334U 19034B   25200.55739789  .00000052  00000+0  00000+0 0  9992
2 44334   0.0720 192.7370 0003166 271.9499  40.5560  1.00270285  3508
BEIDOU-3 IGSO-2         
1 44337U 19035A   25200.83865171 -.00000103  00000+0  00000+0 0  9990
2 44337  55.2157 161.7828 0035597 210.6864 346.3549  1.00260394 22336
PROX-1                  
1 44339U 19036A   25200.59218960  .00008232  00000+0  10153-2 0  9997
2 44339  23.9952 158.8319 0007704 167.4370 192.6320 14.80577141323959
NPSAT1                  
1 44340U 19036B   25200.74956032  .00003733  00000+0  57243-3 0  9998
2 44340  23.9976 215.2464 0009067  68.4021 291.7440 14.69831445323448
OTB                     
1 44341U 19036C   25200.88242223  .00000985  00000+0  17053-3 0  9995
2 44341  23.9970 283.9484 0010951 314.4448  45.5148 14.56203990322867
FORMOSAT 7-3            
1 44343U 19036E   25200.69038042  .00003664  00000+0  22304-3 0  9990
2 44343  23.9999 300.6060 0000417 313.0632  46.9836 15.05961079332991
DSX                     
1 44344U 19036F   25197.64262087 -.00000006  00000+0  00000+0 0  9992
2 44344  42.2194 113.3962 1959505 231.7620 108.9821  4.54374544100542
FORMOSAT 7-1            
1 44349U 19036L   25200.90391305  .00003263  00000+0  21705-3 0  9993
2 44349  23.9978 115.3559 0000251  62.1510 297.9017 15.02346980334795
FORMOSAT 7-4            
1 44350U 19036M   25200.26181303  .00003854  00000+0  25995-3 0  9990
2 44350  23.9971 181.8165 0000837 330.3147  29.7307 15.02426545334112
FORMOSAT 7-2            
1 44351U 19036N   25200.74839682  .00002950  00000+0  19378-3 0  9998
2 44351  23.9967 232.8152 0001076 323.1758  36.8670 15.02366498333701
FORMOSAT 7-6            
1 44353U 19036Q   25200.88128920  .00004231  00000+0  28792-3 0  9995
2 44353  23.9992  52.7339 0001908  42.3998 317.6651 15.02394844331957
FORMOSAT 7-5            
1 44358U 19036V   25200.72573996  .00003237  00000+0  21462-3 0  9992
2 44358  24.0004 353.5774 0000054 285.4441  74.6056 15.02425786332452
METEOR-M2 2             
1 44387U 19038A   25201.17467939  .00000059  00000+0  45568-4 0  9998
2 44387  98.8768 179.2602 0000252 193.5937 166.5234 14.24217166314039
ICEYE-X4                
1 44390U 19038D   25201.17937134  .00008028  00000+0  36843-3 0  9990
2 44390  97.9024 211.1933 0016645  26.5435 333.6648 15.20590168331209
MOMENTUS-X1             
1 44408U 19038Y   25200.78186442  .00014282  00000+0  30442-3 0  9992
2 44408  97.7181 216.1107 0013716 140.6543 219.5703 15.44936490334916
COSMOS 2538             
1 44424U 19039D   25200.87801382  .00005405  00000+0  27949-3 0  9993
2 44424  97.6236 273.5420 0048471 117.2433 243.3749 15.15658868329482
YAOGAN-30 06A           
1 44449U 19045A   25201.05352453  .00002093  00000+0  16617-3 0  9998
2 44449  34.9919 190.8787 0005904 259.6571 100.3471 15.00236506326707
YAOGAN-30 06B           
1 44450U 19045B   25201.16441001  .00002055  00000+0  16335-3 0  9995
2 44450  34.9910 189.7638 0007177  47.3424 312.7887 15.00193817326724
